[{"OBJECT_NAME":"HYPERFIELD-1A","OBJECT_ID":"2024-149CY","EPOCH":"2026-03-09T18:21:25.814304","MEAN_MOTION":15.29681349,"ECCENTRICITY":0.00038648,"INCLINATION":97.3842,"RA_OF_ASC_NODE":149.5066,"ARG_OF_PERICENTER":313.7844,"MEAN_ANOMALY":46.3076,"EPHEMERIS_TYPE":0,"CLASSIFICATION_TYPE":"U","NORAD_CAT_ID":60562,"ELEMENT_SET_NO":999,"REV_AT_EPOCH":8683,"BSTAR":0.00030052114,"MEAN_MOTION_DOT":8.569e-5,"MEAN_MOTION_DDOT":0},{"OBJECT_NAME":"STARLINK-35650","OBJECT_ID":"2025-268S","EPOCH":"2026-03-09T03:30:00.926784","MEAN_MOTION":15.27552243,"ECCENTRICITY":0.00014842,"INCLINATION":43.0029,"RA_OF_ASC_NODE":350.3909,"ARG_OF_PERICENTER":294.8754,"MEAN_ANOMALY":65.1944,"EPHEMERIS_TYPE":0,"CLASSIFICATION_TYPE":"U","NORAD_CAT_ID":66573,"ELEMENT_SET_NO":999,"REV_AT_EPOCH":1787,"BSTAR":0.00078546773,"MEAN_MOTION_DOT":0.00021397,"MEAN_MOTION_DDOT":0}]
