HYPERFIELD-1A           
1 60562U 24149CY  26068.76488211  .00008569  00000+0  30052-3 0  9998
2 60562  97.3842 149.5066 0003865 313.7844  46.3076 15.29681349 86836
STARLINK-35650          
1 66573U 25268S   26068.14584406  .00021397  00000+0  78547-3 0  9999
2 66573  43.0029 350.3909 0001484 294.8754  65.1944 15.27552243 17870
